ONEWEB-0055             
1 45443U 20020V   21002.91667824 -.00011111  00000-0 -31418-1 0  9997
2 45443  87.8827  56.9403 0014904  51.3808 313.3788 13.11389993  1744
ONEWEB-0093             
1 45444U 20020W   21002.91667824  .00007618  00000-0  21353-1 0  9990
2 45444  87.8847  56.9853 0012951  58.5624 138.7103 13.11671745  1728
ONEWEB-0029             
1 45445U 20020X   21002.91667824  .00008574  00000-0  24090-1 0  9994
2 45445  87.8846  56.9645 0028600  43.4890 328.7620 13.11402312  1719
ONEWEB-0068             
1 45446U 20020Y   21002.91667824  .00007177  00000-0  20201-1 0  9993
2 45446  87.8889  56.9823 0001197 109.5546 108.1371 13.11410852  1721
ONEWEB-0046             
1 45447U 20020Z   21002.91667824  .00006957  00000-0  19584-1 0  9991
2 45447  87.8864  56.9857 0001573  91.6809 140.8628 13.11394954  1703
ONEWEB-0063             
1 45448U 20020AA  21002.91667824  .00008888  00000-0  25034-1 0  9994
2 45448  87.8897  57.0027 0023753  46.9021 341.4401 13.11280431  1784
ONEWEB-0019             
1 45449U 20020AB  21002.91667824  .00007354  00000-0  20692-1 0  9997
2 45449  87.8894  56.9516 0001841  92.5256 118.4332 13.11436761  1722
ONEWEB-0094             
1 45450U 20020AC  21002.91667824  .00032505  00000-0  32940-2 0  9995
2 45450  87.5765  48.4864 0026202 348.4450 237.2319 14.90516628  1754
ONEWEB-0087             
1 45451U 20020AD  21002.91667824  .00000013  00000-0  00000-0 0  9995
2 45451  87.8867  56.9814 0027419  54.2274 287.9344 13.10900477  1702
ONEWEB-0082             
1 45452U 20020AE  21002.91667824 -.00009523  00000-0 -26974-1 0  9992
2 45452  87.8915  56.9565 0014534  56.4132 292.7144 13.11278482  1720
ONEWEB-0050             
1 45453U 20020AF  21002.91667824  .00035221  00000-0  32042-2 0  9999
2 45453  87.5410  47.5542 0024999 344.7641 218.3932 14.94809060  1771
ONEWEB-0034             
1 45454U 20020AG  21002.91667824  .00006990  00000-0  19673-1 0  9995
2 45454  87.8853  56.9787 0001623  87.1591 203.9230 13.11410641  1729
ONEWEB-0060             
1 45455U 20020AH  21002.91667824  .00006808  00000-0  19163-1 0  9998
2 45455  87.8807  56.9713 0001670  95.3914 166.5657 13.11399296  1718
ONEWEB-0086             
1 45456U 20020AJ  21002.91667824  .00021592  00000-0  60795-1 0  9993
2 45456  87.8903  56.9653 0007689  61.3353 133.4622 13.11350574  1727
ONEWEB-0088             
1 45457U 20020AK  21002.91667824  .00006869  00000-0  19331-1 0  9994
2 45457  87.8851  57.0059 0001551  88.3806 195.1571 13.11419262  1724
ONEWEB-0102             
1 47258U 20100A   21002.91667824  .00068392  00000-0  16665-2 0  9991
2 47258  87.3994  34.2024 0006140 218.2141 204.8529 15.40633745  1798
ONEWEB-0109             
1 47259U 20100B   21002.91667824 -.01099837  00000-0 -35064-1 0  9996
2 47259  87.3928  34.2219 0006190 211.0990  50.5155 15.35322155  1762
ONEWEB-0110             
1 47260U 20100C   21002.91667824  .00068274  00000-0  16698-2 0  9999
2 47260  87.3964  34.2006 0005748 215.5868 201.4746 15.40524124  1768
ONEWEB-0111             
1 47261U 20100D   21002.91667824 -.01122969  00000-0 -35225-1 0  9991
2 47261  87.3982  34.2224 0005978 220.7481  48.6659 15.35888406  1792
ONEWEB-0114             
1 47262U 20100E   21002.91667824 -.01111262  00000-0 -35264-1 0  9999
2 47262  87.3971  34.2280 0007215 200.1576  43.0093 15.35482941  1803
ONEWEB-0117             
1 47263U 20100F   21002.91667824 -.01101061  00000-0 -31576-1 0  9998
2 47263  87.3967  34.2153 0008337 228.5652  72.9031 15.38567796  1799
ONEWEB-0118             
1 47264U 20100G   21002.91667824  .00068403  00000-0  16208-2 0  9994
2 47264  87.3968  34.1901 0009756 212.6237 255.2466 15.41450921  1771
ONEWEB-0119             
1 47265U 20100H   21002.91667824  .00062522  00000-0  15974-2 0  9990
2 47265  87.3944  34.2067 0009580 209.4922 133.8234 15.39181115  1766
ONEWEB-0120             
1 47266U 20100J   21002.91667824  .00068571  00000-0  16635-2 0  9996
2 47266  87.3975  34.1996 0006647 220.6861 209.5368 15.40764045  1792
ONEWEB-0121             
1 47267U 20100K   21002.91667824 -.01021078  00000-0 -29049-1 0  9993
2 47267  87.3984  34.2167 0009504 222.4870  98.8499 15.39036465  1799
ONEWEB-0122             
1 47268U 20100L   21002.91667824 -.01087778  00000-0 -35403-1 0  9994
2 47268  87.3999  34.2303 0006477 207.9198  44.3184 15.34642364  1923
ONEWEB-0123             
1 47269U 20100M   21002.91667824  .00067904  00000-0  16705-2 0  9996
2 47269  87.3983  34.2035 0005391 210.8896 197.8639 15.40349429  1765
ONEWEB-0124             
1 47270U 20100N   21002.91667824  .00066144  00000-0  16514-2 0  9991
2 47270  87.3977  34.2061 0007332 194.3298 188.0822 15.39893367  1778
ONEWEB-0125             
1 47271U 20100P   21002.91667824 -.01090013  00000-0 -33437-1 0  9999
2 47271  87.3959  34.2198 0006891 204.3893  47.7261 15.36487800  1802
ONEWEB-0126             
1 47272U 20100Q   21002.91667824  .00068718  00000-0  17216-2 0  9992
2 47272  87.3973  34.2093 0007777 196.0471 179.6115 15.39775194  2258
ONEWEB-0127             
1 47273U 20100R   21002.91667824  .00068509  00000-0  16313-2 0  9998
2 47273  87.3993  34.2003 0009272 214.8596 245.1736 15.41307373  1790
ONEWEB-0128             
1 47274U 20100S   21002.91667824  .00065894  00000-0  15144-2 0  9994
2 47274  87.3990  34.1888 0010832 188.2664 329.7635 15.42367066  1795
ONEWEB-0129             
1 47275U 20100T   21002.91667824 -.00508330  00000-0 -14127-1 0  9993
2 47275  87.3961  34.2108 0009074 224.3183  90.7421 15.38861930  1763
ONEWEB-0130             
1 47276U 20100U   21002.91667824  .00066837  00000-0  16606-2 0  9998
2 47276  87.3987  34.2079 0006347 194.7277 196.0738 15.40045904  1762
ONEWEB-0131             
1 47277U 20100V   21002.91667824  .00067971  00000-0  16690-2 0  9992
2 47277  87.3970  34.2009 0005526 207.1961 203.3671 15.40405504  1769
ONEWEB-0132             
1 47278U 20100W   21002.91667824 -.01114295  00000-0 -34252-1 0  9991
2 47278  87.3965  34.2185 0006378 223.1015  54.0324 15.36490838  1791
ONEWEB-0133             
1 47279U 20100X   21002.91667824  .00068169  00000-0  16091-2 0  9999
2 47279  87.3986  34.1954 0010164 211.1520 262.8322 15.41562825  1793
ONEWEB-0134             
1 47280U 20100Y   21002.91667824  .00068630  00000-0  16459-2 0  9992
2 47280  87.3976  34.1954 0009142 218.5831 232.4375 15.41092021  1791
ONEWEB-0135             
1 47281U 20100Z   21002.91667824  .00066392  00000-0  15313-2 0  9994
2 47281  87.3962  34.1847 0010817 190.7111 321.3813 15.42258521  1774
ONEWEB-0136             
1 47282U 20100AA  21002.91667824  .00067290  00000-0  16657-2 0  9995
2 47282  87.3958  34.1997 0006080 198.3033 198.6683 15.40158606  1760
ONEWEB-0137             
1 47283U 20100AB  21002.91667824  .00064377  00000-0  16264-2 0  9993
2 47283  87.3976  34.2102 0008777 198.5676 163.7210 15.39526634  1790
ONEWEB-0138             
1 47284U 20100AC  21002.91667824  .00061148  00000-0  15761-2 0  9998
2 47284  87.3946  34.2116 0009767 215.8488 113.5101 15.38914272  1797
ONEWEB-0139             
1 47285U 20100AD  21002.91667824  .00066802  00000-0  15475-2 0  9993
2 47285  87.4003  34.1931 0010822 193.7106 311.1320 15.42125727  1818
ONEWEB-0140             
1 47286U 20100AE  21002.91667824 -.01086274  00000-0 -32054-1 0  9993
2 47286  87.3970  34.2175 0007244 229.1402  63.1673 15.37671831  1809
ONEWEB-0141             
1 47287U 20100AF  21002.91667824  .00063195  00000-0  16083-2 0  9993
2 47287  87.3974  34.2113 0009508 206.4387 143.3199 15.39299237  1768
ONEWEB-0142             
1 47288U 20100AG  21002.91667824  .00067691  00000-0  16680-2 0  9992
2 47288  87.3999  34.2089 0005727 202.8939 201.7245 15.40298270  1769
ONEWEB-0143             
1 47289U 20100AH  21002.91667824 -.00150280  00000-0 -40257-2 0  9999
2 47289  87.3977  34.2200 0008556 226.2925  81.3463 15.38607204  1761
ONEWEB-0144             
1 47290U 20100AJ  21002.91667824 -.01098063  00000-0 -33064-1 0  9999
2 47290  87.3996  34.2213 0006903 226.7221  58.6040 15.37081974  1763
ONEWEB-0145             
1 47291U 20100AK  21002.91667824  .00067170  00000-0  15616-2 0  9996
2 47291  87.3974  34.1889 0010856 196.1677 302.6888 15.42016564  1799
ONEWEB-0146             
1 47292U 20100AL  21002.91667824  .00061787  00000-0  15857-2 0  9992
2 47292  87.3989  34.2161 0009632 213.0556 122.8258 15.39046418  1795
ONEWEB-0147             
1 47293U 20100AM  21002.91667824  .00065074  00000-0  16372-2 0  9999
2 47293  87.3979  34.2070 0008281 197.1918 172.1041 15.39655413  1774
